{
  "type": "FeatureCollection",
  "features": [
    {
      "type": "Feature",
      "properties": {
        "norad_id": 33376,
        "name": "GALAXY 19 (G-19)",
        "group": "intelsat",
        "lat": 0.03087582874670852,
        "lon": 52.2085776283357,
        "alt_km": 35794.08084504788,
        "timestamp": "2025-12-21T03:56:50.522015+00:00",
        "meta_object_name": "GALAXY 19 (G-19)",
        "meta_object_id": "2008-045A",
        "meta_epoch": "2025-12-20T16:11:29.093856",
        "meta_mean_motion": 1.00271403,
        "meta_eccentricity": 0.000252,
        "meta_inclination": 0.0149,
        "meta_ra_of_asc_node": 308.6931,
        "meta_arg_of_pericenter": 326.0211,
        "meta_mean_anomaly": 320.6622,
        "meta_ephemeris_type": 0,
        "meta_classification_type": "U",
        "meta_norad_cat_id": 33376,
        "meta_element_set_no": 999,
        "meta_rev_at_epoch": 6311,
        "meta_bstar": 0,
        "meta_mean_motion_dot": -1.16e-06,
        "meta_mean_motion_ddot": 0,
        "tle_line1": "1 33376U 08045A   25354.67464229 -.00000116  00000+0  00000+0 0  9995",
        "tle_line2": "2 33376   0.0149 308.6931 0002520 326.0211 320.6622  1.00271403 63112"
      },
      "geometry": {
        "type": "Point",
        "coordinates": [
          52.2085776283357,
          0.03087582874670852
        ]
      }
    },
    {
      "type": "Feature",
      "properties": {
        "norad_id": 35493,
        "name": "FM-5",
        "group": "intelsat",
        "lat": 0.03131114638763569,
        "lon": 63.03599196164727,
        "alt_km": 35786.81212507516,
        "timestamp": "2025-12-21T03:56:50.522026+00:00",
        "meta_object_name": "FM-5",
        "meta_object_id": "2009-034A",
        "meta_epoch": "2025-12-20T14:32:01.120128",
        "meta_mean_motion": 1.00270592,
        "meta_eccentricity": 0.0001208,
        "meta_inclination": 0.0236,
        "meta_ra_of_asc_node": 289.9079,
        "meta_arg_of_pericenter": 227.417,
        "meta_mean_anomaly": 63.9794,
        "meta_ephemeris_type": 0,
        "meta_classification_type": "U",
        "meta_norad_cat_id": 35493,
        "meta_element_set_no": 999,
        "meta_rev_at_epoch": 4485,
        "meta_bstar": 0,
        "meta_mean_motion_dot": -1.77e-06,
        "meta_mean_motion_ddot": 0,
        "tle_line1": "1 35493U 09034A   25354.60556852 -.00000177  00000+0  00000+0 0  9990",
        "tle_line2": "2 35493   0.0236 289.9079 0001208 227.4170  63.9794  1.00270592 44850"
      },
      "geometry": {
        "type": "Point",
        "coordinates": [
          63.03599196164727,
          0.03131114638763569
        ]
      }
    },
    {
      "type": "Feature",
      "properties": {
        "norad_id": 36097,
        "name": "INTELSAT 14 (IS-14)",
        "group": "intelsat",
        "lat": 0.037878970929329236,
        "lon": 104.19562928883171,
        "alt_km": 35796.78432266581,
        "timestamp": "2025-12-21T03:56:50.522037+00:00",
        "meta_object_name": "INTELSAT 14 (IS-14)",
        "meta_object_id": "2009-064A",
        "meta_epoch": "2025-12-20T18:09:08.741088",
        "meta_mean_motion": 1.00270803,
        "meta_eccentricity": 0.0002455,
        "meta_inclination": 0.0113,
        "meta_ra_of_asc_node": 6.4119,
        "meta_arg_of_pericenter": 274.7951,
        "meta_mean_anomaly": 35.6741,
        "meta_ephemeris_type": 0,
        "meta_classification_type": "U",
        "meta_norad_cat_id": 36097,
        "meta_element_set_no": 999,
        "meta_rev_at_epoch": 5881,
        "meta_bstar": 0,
        "meta_mean_motion_dot": -2.5e-06,
        "meta_mean_motion_ddot": 0,
        "tle_line1": "1 36097U 09064A   25354.75635117 -.00000250  00000+0  00000+0 0  9994",
        "tle_line2": "2 36097   0.0113   6.4119 0002455 274.7951  35.6741  1.00270803 58813"
      },
      "geometry": {
        "type": "Point",
        "coordinates": [
          104.19562928883171,
          0.037878970929329236
        ]
      }
    },
    {
      "type": "Feature",
      "properties": {
        "norad_id": 36106,
        "name": "INTELSAT 15 (IS-15)",
        "group": "intelsat",
        "lat": -0.03757251722686892,
        "lon": -125.66586897674031,
        "alt_km": 35779.76897433602,
        "timestamp": "2025-12-21T03:56:50.522047+00:00",
        "meta_object_name": "INTELSAT 15 (IS-15)",
        "meta_object_id": "2009-067A",
        "meta_epoch": "2025-12-20T19:47:44.480832",
        "meta_mean_motion": 1.00271898,
        "meta_eccentricity": 0.0002148,
        "meta_inclination": 0.0154,
        "meta_ra_of_asc_node": 340.7421,
        "meta_arg_of_pericenter": 299.8365,
        "meta_mean_anomaly": 191.1722,
        "meta_ephemeris_type": 0,
        "meta_classification_type": "U",
        "meta_norad_cat_id": 36106,
        "meta_element_set_no": 999,
        "meta_rev_at_epoch": 3944,
        "meta_bstar": 0,
        "meta_mean_motion_dot": -1.62e-06,
        "meta_mean_motion_ddot": 0,
        "tle_line1": "1 36106U 09067A   25354.82482038 -.00000162  00000+0  00000+0 0  9990",
        "tle_line2": "2 36106   0.0154 340.7421 0002148 299.8365 191.1722  1.00271898 39445"
      },
      "geometry": {
        "type": "Point",
        "coordinates": [
          -125.66586897674031,
          -0.03757251722686892
        ]
      }
    },
    {
      "type": "Feature",
      "properties": {
        "norad_id": 36131,
        "name": "DIRECTV 12",
        "group": "intelsat",
        "lat": 0.004830904800231499,
        "lon": 46.48364676400107,
        "alt_km": 35785.187050498986,
        "timestamp": "2025-12-21T03:56:50.522058+00:00",
        "meta_object_name": "DIRECTV 12",
        "meta_object_id": "2009-075A",
        "meta_epoch": "2025-12-20T14:27:16.573824",
        "meta_mean_motion": 1.00272128,
        "meta_eccentricity": 3.97e-05,
        "meta_inclination": 0.0131,
        "meta_ra_of_asc_node": 87.5384,
        "meta_arg_of_pericenter": 257.995,
        "meta_mean_anomaly": 218.0087,
        "meta_ephemeris_type": 0,
        "meta_classification_type": "U",
        "meta_norad_cat_id": 36131,
        "meta_element_set_no": 999,
        "meta_rev_at_epoch": 4476,
        "meta_bstar": 0,
        "meta_mean_motion_dot": -8e-07,
        "meta_mean_motion_ddot": 0,
        "tle_line1": "1 36131U 09075A   25354.60227516 -.00000080  00000+0  00000+0 0  9990",
        "tle_line2": "2 36131   0.0131  87.5384 0000397 257.9950 218.0087  1.00272128 44762"
      },
      "geometry": {
        "type": "Point",
        "coordinates": [
          46.48364676400107,
          0.004830904800231499
        ]
      }
    },
    {
      "type": "Feature",
      "properties": {
        "norad_id": 36397,
        "name": "INTELSAT 16 (IS-16)",
        "group": "intelsat",
        "lat": 0.03725713008843114,
        "lon": 73.026686237354,
        "alt_km": 35793.036858128566,
        "timestamp": "2025-12-21T03:56:50.522069+00:00",
        "meta_object_name": "INTELSAT 16 (IS-16)",
        "meta_object_id": "2010-006A",
        "meta_epoch": "2025-12-20T11:26:34.478880",
        "meta_mean_motion": 1.00277419,
        "meta_eccentricity": 0.00021478,
        "meta_inclination": 0.0116,
        "meta_ra_of_asc_node": 344.1839,
        "meta_arg_of_pericenter": 290.2193,
        "meta_mean_anomaly": 270.3649,
        "meta_ephemeris_type": 0,
        "meta_classification_type": "U",
        "meta_norad_cat_id": 36397,
        "meta_element_set_no": 999,
        "meta_rev_at_epoch": 5786,
        "meta_bstar": 0,
        "meta_mean_motion_dot": -2.21e-06,
        "meta_mean_motion_ddot": 0,
        "tle_line1": "1 36397U 10006A   25354.47678795 -.00000221  00000+0  00000+0 0  9991",
        "tle_line2": "2 36397   0.0116 344.1839 0002147 290.2193 270.3649  1.00277419 57868"
      },
      "geometry": {
        "type": "Point",
        "coordinates": [
          73.026686237354,
          0.03725713008843114
        ]
      }
    },
    {
      "type": "Feature",
      "properties": {
        "norad_id": 37185,
        "name": "XM-5",
        "group": "intelsat",
        "lat": 0.06316680577740057,
        "lon": 34.01101883067179,
        "alt_km": 35788.653953047564,
        "timestamp": "2025-12-21T03:56:50.522080+00:00",
        "meta_object_name": "XM-5",
        "meta_object_id": "2010-053A",
        "meta_epoch": "2025-12-20T11:05:14.664192",
        "meta_mean_motion": 1.00280251,
        "meta_eccentricity": 0.00020369,
        "meta_inclination": 0.0654,
        "meta_ra_of_asc_node": 270.4731,
        "meta_arg_of_pericenter": 249.3201,
        "meta_mean_anomaly": 340.6321,
        "meta_ephemeris_type": 0,
        "meta_classification_type": "U",
        "meta_norad_cat_id": 37185,
        "meta_element_set_no": 999,
        "meta_rev_at_epoch": 5569,
        "meta_bstar": 0,
        "meta_mean_motion_dot": -1e-08,
        "meta_mean_motion_ddot": 0,
        "tle_line1": "1 37185U 10053A   25354.46197528 -.00000001  00000+0  00000+0 0  9994",
        "tle_line2": "2 37185   0.0654 270.4731 0002036 249.3201 340.6321  1.00280251 55690"
      },
      "geometry": {
        "type": "Point",
        "coordinates": [
          34.01101883067179,
          0.06316680577740057
        ]
      }
    }
  ]
}